const data = [
"1 04793U 70106A   22077.13421615 -.00000027  00000+0  10165-3 0  9993",
"2 04793 101.5672 143.2108 0032064 139.9569 274.1619 12.54003572346623",
"1 06235U 72082A   22076.88671102 -.00000037  00000+0  57307-4 0  9991",
"2 06235 101.9450  58.5783 0003742 249.1467 138.7199 12.53144194260722",
"1 06920U 73086A   22076.92256230 -.00000040  00000+0  45200-4 0  9996",
"2 06920 102.1988  58.2097 0006654  98.3750 325.8721 12.40346574189442",
"1 07529U 74089A   22076.95463170 -.00000050  00000+0 -23984-4 0  9999",
"2 07529 101.9044  56.3536 0008715 280.1492 143.8559 12.53155542165335",
"1 09057U 76077A   22076.82419119 -.00000044  00000+0  47852-5 0  9999",
"2 09057 102.0880  45.8261 0009745 309.7384 114.9490 12.37768013 62405",
"1 11060U 78096A   22076.78219402  .00000086  00000+0  62428-4 0  9997",
"2 11060  98.6482 132.9055 0011337  51.8752 308.3444 14.18359151458613",
"1 11416U 79057A   22077.05059796  .00000155  00000+0  71997-4 0  9997",
"2 11416  98.6679  87.7479 0010612 162.8845 197.2699 14.33708539228633",
"1 12553U 81059A   22076.95158205  .00000025  00000+0  34889-4 0  9993",
"2 12553  99.0125 120.1755 0011757  20.8738 339.2914 14.17317812104836",
"1 13923U 83022A   22076.82882159  .00000079  00000+0  48762-4 0  9999",
"2 13923  98.6819  67.7537 0016084 115.6740 244.6104 14.28779055 29324",
"1 15427U 84123A   22076.95935630  .00000080  00000+0  63420-4 0  9990",
"2 15427  99.0352  47.9571 0015790  66.1802   2.3786 14.16174630923662",
"1 16969U 86073A   22076.95379593  .00000062  00000+0  42283-4 0  9992",
"2 16969  98.5616  64.8246 0011455 217.0967 195.8241 14.28174342847775",
"1 19531U 88089A   22076.93235554  .00000026  00000+0  34109-4 0  9993",
"2 19531  98.4196  71.0647 0012320  83.2724 276.9853 14.15295848727875",
"1 21263U 91032A   22076.92437772  .00000042  00000+0  35525-4 0  9996",
"2 21263  98.5136  79.3180 0012621 245.2660 114.7207 14.25973160603686",
"1 22739U 93050A   22076.94742002  .00000064  00000+0  56559-4 0  9998",
"2 22739  98.4968  61.3480 0008463 243.0844 116.9465 14.12820106474133",
"1 23455U 94089A   22076.93134752  .00000020  00000+0  31945-4 0  9997",
"2 23455  98.4591 108.5308 0008705 222.2759 137.7745 14.14184442403779",
"1 25338U 98030A   22077.21153220  .00000099  00000+0  59571-4 0  9993",
"2 25338  98.6553 107.8939 0010141 197.7354 162.3474 14.26098476240267",
"1 26536U 00055A   22076.85919700  .00000049  00000+0  48722-4 0  9997",
"2 26536  98.6483 138.8736 0011502  70.0940 290.1471 14.13309697404417",
"1 27453U 02032A   22077.30045800  .00000027  00000+0  30185-4 0  9995",
"2 27453  98.6627  23.6720 0011878 171.7759 188.3617 14.25098275 25883",
"1 28654U 05018A   22077.19644751  .00000161  00000+0  11085-3 0  9999",
"2 28654  98.9577 147.6771 0013682 226.1421 133.8621 14.12700105867188",
"1 33591U 09005A   22077.18747348  .00000084  00000+0  70772-4 0  9993",
"2 33591  99.1599 109.3582 0014844  85.3231 274.9635 14.12538571675568",
"1 37849U 11061A   22077.14637226  .00000028  00000+0  34153-4 0  9998",
"2 37849  98.7253  16.9999 0000887  92.2842  32.1130 14.19549730538234",
"1 43013U 17073A   22077.29820747  .00000038  00000+0  38983-4 0  9991",
"2 43013  98.7493  17.1379 0000952  62.1497 297.9775 14.19533552224299",
];

export default data;
